STARLETTE               
1 07646U 75010A   22275.53854677 -.00000141  00000+0 -35474-6 0  9995
2 07646  49.8259  47.5448 0205740 271.3372  86.3961 13.82313554407297
LAGEOS 1                
1 08820U 76039A   22275.34256943  .00000035  00000+0  00000+0 0  9993
2 08820 109.8520  75.6046 0045143 232.0421 124.7267  6.38664840826677
AJISAI (EGS)            
1 16908U 86061A   22275.57382630 -.00000085  00000+0  85138-4 0  9999
2 16908  50.0120 349.6590 0011226 335.1999 188.6524 12.44497192311834
COSMOS 1989 (ETALON 1)  
1 19751U 89001C   22275.53452294  .00000056  00000+0  00000+0 0  9992
2 19751  64.3291 118.7021 0023840 213.4055 331.8260  2.13156225262513
COSMOS 2024 (ETALON 2)  
1 20026U 89039C   22275.40968071 -.00000069  00000+0  00000+0 0  9996
2 20026  65.5257 356.7617 0018614 218.6166 158.4734  2.13204197259644
LAGEOS 2                
1 22195U 92070B   22275.29449722 -.00000009  00000+0  00000+0 0  9992
2 22195  52.6741  42.2669 0138372 315.5359  23.6248  6.47293536707767
STELLA                  
1 22824U 93061B   22275.59904206 -.00000051  00000+0 -19198-5 0  9990
2 22824  98.9599 299.2036 0006033 196.5364 327.3264 14.27393345511663
LARES                   
1 38077U 12006A   22275.54838759 -.00000040  00000+0 -62597-5 0  9990
2 38077  69.4911  84.3735 0011295 243.6917 116.2925 12.54931519487349
